[{"OBJECT_NAME":"STARLINK-5897","OBJECT_ID":"2023-037T","EPOCH":"2026-03-09T23:17:46.995648","MEAN_MOTION":14.98333859,"ECCENTRICITY":0.00032886,"INCLINATION":69.9985,"RA_OF_ASC_NODE":303.5706,"ARG_OF_PERICENTER":272.7263,"MEAN_ANOMALY":87.352,"EPHEMERIS_TYPE":0,"CLASSIFICATION_TYPE":"U","NORAD_CAT_ID":55931,"ELEMENT_SET_NO":999,"REV_AT_EPOCH":16353,"BSTAR":5.1350876e-5,"MEAN_MOTION_DOT":5.2e-6,"MEAN_MOTION_DDOT":0},{"OBJECT_NAME":"KORSAT-1","OBJECT_ID":"2024-066L","EPOCH":"2026-03-09T23:36:29.126880","MEAN_MOTION":14.99775855,"ECCENTRICITY":0.00103896,"INCLINATION":45.4118,"RA_OF_ASC_NODE":38.4763,"ARG_OF_PERICENTER":214.4294,"MEAN_ANOMALY":145.5913,"EPHEMERIS_TYPE":0,"CLASSIFICATION_TYPE":"U","NORAD_CAT_ID":59452,"ELEMENT_SET_NO":999,"REV_AT_EPOCH":10517,"BSTAR":0.00047970888,"MEAN_MOTION_DOT":5.797e-5,"MEAN_MOTION_DDOT":0}]
